{
    "CCSDS_OMM_VERS": "3.0",
    "COMMENT": "GENERATED VIA SPACE-TRACK.ORG API",
    "CREATION_DATE": "2025-05-23T14:26:18",
    "ORIGINATOR": "18 SPCS",
    "OBJECT_NAME": "BEIDOU 3M4",
    "OBJECT_ID": "2018-003B",
    "CENTER_NAME": "EARTH",
    "REF_FRAME": "TEME",
    "TIME_SYSTEM": "UTC",
    "MEAN_ELEMENT_THEORY": "SGP4",
    "EPOCH": "2025-05-22T22:20:24.391104",
    "MEAN_MOTION": "1.86230848",
    "ECCENTRICITY": "0.00024370",
    "INCLINATION": "54.6646",
    "RA_OF_ASC_NODE": "315.8733",
    "ARG_OF_PERICENTER": "264.9327",
    "MEAN_ANOMALY": "95.0354",
    "EPHEMERIS_TYPE": "0",
    "CLASSIFICATION_TYPE": "U",
    "NORAD_CAT_ID": "43108",
    "ELEMENT_SET_NO": "999",
    "REV_AT_EPOCH": "5009",
    "BSTAR": "0.00000000000000",
    "MEAN_MOTION_DOT": "-0.00000058",
    "MEAN_MOTION_DDOT": "0.0000000000000",
    "SEMIMAJOR_AXIS": "27906.204",
    "PERIOD": "773.234",
    "APOAPSIS": "21534.869",
    "PERIAPSIS": "21521.268",
    "OBJECT_TYPE": "PAYLOAD",
    "RCS_SIZE": "LARGE",
    "COUNTRY_CODE": "PRC",
    "LAUNCH_DATE": "2018-01-11",
    "SITE": "XSC",
    "DECAY_DATE": null,
    "FILE": "4736889",
    "GP_ID": "288172717",
    "TLE_LINE0": "0 BEIDOU 3M4",
    "TLE_LINE1": "1 43108U 18003B   25142.93083786 -.00000058  00000-0  00000+0 0  9999",
    "TLE_LINE2": "2 43108  54.6646 315.8733 0002437 264.9327  95.0354  1.86230848 50098"
}